start=new Date('2023-04-10T00:00:00.000Z').valueOf();
sats=[{"EPHEMERIS_TYPE":"0","CENTER_NAME":"EARTH","CLASSIFICATION_TYPE":"U","COUNTRY_CODE":"US","TLE_LINE2":"2 55590  43.0016  29.5941 0001110 266.0395 161.9837 15.02575195  8760","TLE_LINE1":"1 55590U 23020X   23100.00001157 -.00061808  00000-0 -45960-2 0  9992","MEAN_MOTION":"15.02575195","SITE":"AFETR","ARG_OF_PERICENTER":"266.0395","OBJECT_TYPE":"PAYLOAD","PERIAPSIS":"558.191","REF_FRAME":"TEME","APOAPSIS":"559.731","OBJECT_ID":"2023-020X","MEAN_ANOMALY":"161.9837","RCS_SIZE":"LARGE","MEAN_MOTION_DDOT":"0.0000000000000","INCLINATION":"43.0016","ECCENTRICITY":"0.00011100","NORAD_CAT_ID":"55590","GP_ID":"229784176","REV_AT_EPOCH":"876","BSTAR":"-0.00459600000000","DECAY_DATE":null,"LAUNCH_DATE":"2023-02-12","OBJECT_NAME":"STARLINK-5762","SEMIMAJOR_AXIS":"6937.096","EPOCH":"2023-04-10T00:00:00.999648","RA_OF_ASC_NODE":"29.5941","FILE":"3884542","MEAN_MOTION_DOT":"-0.00061808","ELEMENT_SET_NO":"999","TIME_SYSTEM":"UTC","MEAN_ELEMENT_THEORY":"SGP4","PERIOD":"95.835"},{"BSTAR":"0.00017264000000","REV_AT_EPOCH":"873","GP_ID":"229811353","NORAD_CAT_ID":"55591","ECCENTRICITY":"0.00013810","INCLINATION":"43.0016","MEAN_MOTION_DDOT":"0.0000000000000","PERIOD":"95.838","MEAN_ELEMENT_THEORY":"SGP4","TIME_SYSTEM":"UTC","ELEMENT_SET_NO":"999","MEAN_MOTION_DOT":"0.00002129","FILE":"3884641","RA_OF_ASC_NODE":"30.8113","EPOCH":"2023-04-09T19:07:32.433024","SEMIMAJOR_AXIS":"6937.201","LAUNCH_DATE":"2023-02-12","OBJECT_NAME":"STARLINK-5760","DECAY_DATE":null,"MEAN_MOTION":"15.02541191","TLE_LINE1":"1 55591U 23020Y   23099.79690316  .00002129  00000-0  17264-3 0  9993","TLE_LINE2":"2 55591  43.0016  30.8113 0001381 262.3323  97.7362 15.02541191  8732","COUNTRY_CODE":"US","CLASSIFICATION_TYPE":"U","CENTER_NAME":"EARTH","EPHEMERIS_TYPE":"0","RCS_SIZE":"LARGE","MEAN_ANOMALY":"97.7362","APOAPSIS":"560.024","OBJECT_ID":"2023-020Y","REF_FRAME":"TEME","PERIAPSIS":"558.108","OBJECT_TYPE":"PAYLOAD","ARG_OF_PERICENTER":"262.3323","SITE":"AFETR"},{"BSTAR":"0.00108550000000","ECCENTRICITY":"0.00021550","INCLINATION":"43.0014","MEAN_MOTION_DDOT":"0.0000000000000","GP_ID":"229784303","REV_AT_EPOCH":"875","NORAD_CAT_ID":"55592","ELEMENT_SET_NO":"999","TIME_SYSTEM":"UTC","FILE":"3884542","MEAN_MOTION_DOT":"0.00015276","PERIOD":"95.713","MEAN_ELEMENT_THEORY":"SGP4","LAUNCH_DATE":"2023-02-12","OBJECT_NAME":"STARLINK-5759","DECAY_DATE":null,"RA_OF_ASC_NODE":"30.0019","SEMIMAJOR_AXIS":"6931.190","EPOCH":"2023-04-09T22:02:11.165856","TLE_LINE2":"2 55592  43.0014  30.0019 0002155 250.2082 109.8529 15.04496194  8752","COUNTRY_CODE":"US","CLASSIFICATION_TYPE":"U","MEAN_MOTION":"15.04496194","TLE_LINE1":"1 55592U 23020Z   23099.91818479  .00015276  00000-0  10855-2 0  9995","EPHEMERIS_TYPE":"0","CENTER_NAME":"EARTH","REF_FRAME":"TEME","APOAPSIS":"554.548","OBJECT_ID":"2023-020Z","MEAN_ANOMALY":"109.8529","RCS_SIZE":"LARGE","SITE":"AFETR","OBJECT_TYPE":"PAYLOAD","PERIAPSIS":"551.561","ARG_OF_PERICENTER":"250.2082"},{"BSTAR":"-0.00100810000000","REV_AT_EPOCH":"130","GP_ID":"229812848","NORAD_CAT_ID":"55593","ECCENTRICITY":"0.00014750","MEAN_MOTION_DDOT":"0.0000000000000","INCLINATION":"43.0019","PERIOD":"95.838","MEAN_ELEMENT_THEORY":"SGP4","TIME_SYSTEM":"UTC","ELEMENT_SET_NO":"999","MEAN_MOTION_DOT":"-0.00013796","FILE":"3884641","RA_OF_ASC_NODE":"30.0893","EPOCH":"2023-04-09T22:00:00.999936","SEMIMAJOR_AXIS":"6937.204","LAUNCH_DATE":"2023-02-12","OBJECT_NAME":"STARLINK-5703","DECAY_DATE":null,"MEAN_MOTION":"15.02540064","TLE_LINE1":"1 55593U 23020AA  23099.91667824 -.00013796  00000-0 -10081-2 0  9990","TLE_LINE2":"2 55593  43.0019  30.0893 0001475 255.0525  63.6396 15.02540064  1304","COUNTRY_CODE":"US","CLASSIFICATION_TYPE":"U","CENTER_NAME":"EARTH","EPHEMERIS_TYPE":"0","RCS_SIZE":"LARGE","MEAN_ANOMALY":"63.6396","APOAPSIS":"560.092","OBJECT_ID":"2023-020AA","REF_FRAME":"TEME","OBJECT_TYPE":"PAYLOAD","PERIAPSIS":"558.046","ARG_OF_PERICENTER":"255.0525","SITE":"AFETR"},{"BSTAR":"0.00012852000000","NORAD_CAT_ID":"55594","GP_ID":"229784312","REV_AT_EPOCH":"875","INCLINATION":"43.0001","MEAN_MOTION_DDOT":"0.0000000000000","ECCENTRICITY":"0.00012430","MEAN_ELEMENT_THEORY":"SGP4","PERIOD":"95.714","FILE":"3884546","MEAN_MOTION_DOT":"0.00001622","ELEMENT_SET_NO":"999","TIME_SYSTEM":"UTC","SEMIMAJOR_AXIS":"6931.212","EPOCH":"2023-04-09T21:57:48.368160","RA_OF_ASC_NODE":"29.9793","DECAY_DATE":null,"LAUNCH_DATE":"2023-02-12","OBJECT_NAME":"STARLINK-5750","TLE_LINE1":"1 55594U 23020AB  23099.91514315  .00001622  00000-0  12852-3 0  9999","MEAN_MOTION":"15.04488785","CLASSIFICATION_TYPE":"U","COUNTRY_CODE":"US","TLE_LINE2":"2 55594  43.0001  29.9793 0001243 250.2703 109.8006 15.04488785  8750","CENTER_NAME":"EARTH","EPHEMERIS_TYPE":"0","MEAN_ANOMALY":"109.8006","RCS_SIZE":"LARGE","REF_FRAME":"TEME","OBJECT_ID":"2023-020AB","APOAPSIS":"553.939","ARG_OF_PERICENTER":"250.2703","PERIAPSIS":"552.216","OBJECT_TYPE":"PAYLOAD","SITE":"AFETR"},{"INCLINATION":"43.0017","MEAN_MOTION_DDOT":"0.0000000000000","ECCENTRICITY":"0.00013820","NORAD_CAT_ID":"55595","REV_AT_EPOCH":"875","GP_ID":"229784308","BSTAR":"-0.00006749700000","DECAY_DATE":null,"OBJECT_NAME":"STARLINK-5740","LAUNCH_DATE":"2023-02-12","EPOCH":"2023-04-09T22:03:01.076544","SEMIMAJOR_AXIS":"6937.211","RA_OF_ASC_NODE":"30.0002","FILE":"3884546","MEAN_MOTION_DOT":"-0.00001115","TIME_SYSTEM":"UTC","ELEMENT_SET_NO":"999","MEAN_ELEMENT_THEORY":"SGP4","PERIOD":"95.838","EPHEMERIS_TYPE":"0","CENTER_NAME":"EARTH","CLASSIFICATION_TYPE":"U","COUNTRY_CODE":"US","TLE_LINE2":"2 55595  43.0017  30.0002 0001382 260.1825  99.8861 15.02537683  8750","TLE_LINE1":"1 55595U 23020AC  23099.91876246 -.00001115  00000-0 -67497-4 0  9999","MEAN_MOTION":"15.02537683","SITE":"AFETR","ARG_OF_PERICENTER":"260.1825","PERIAPSIS":"558.118","OBJECT_TYPE":"PAYLOAD","APOAPSIS":"560.035","OBJECT_ID":"2023-020AC","REF_FRAME":"TEME","RCS_SIZE":"LARGE","MEAN_ANOMALY":"99.8861"},{"BSTAR":"-0.00007278900000","NORAD_CAT_ID":"55596","GP_ID":"229784310","REV_AT_EPOCH":"875","INCLINATION":"43.0018","MEAN_MOTION_DDOT":"0.0000000000000","ECCENTRICITY":"0.00018360","MEAN_ELEMENT_THEORY":"SGP4","PERIOD":"95.714","FILE":"3884546","MEAN_MOTION_DOT":"-0.00001243","TIME_SYSTEM":"UTC","ELEMENT_SET_NO":"999","EPOCH":"2023-04-09T21:56:42.552960","SEMIMAJOR_AXIS":"6931.212","RA_OF_ASC_NODE":"29.9714","DECAY_DATE":null,"OBJECT_NAME":"STARLINK-5729","LAUNCH_DATE":"2023-02-12","TLE_LINE1":"1 55596U 23020AD  23099.91438140 -.00001243  00000-0 -72789-4 0  9999","MEAN_MOTION":"15.04488889","CLASSIFICATION_TYPE":"U","COUNTRY_CODE":"US","TLE_LINE2":"2 55596  43.0018  29.9714 0001836 250.7469 109.3176 15.04488889  8753","CENTER_NAME":"EARTH","EPHEMERIS_TYPE":"0","RCS_SIZE":"LARGE","MEAN_ANOMALY":"109.3176","APOAPSIS":"554.350","OBJECT_ID":"2023-020AD","REF_FRAME":"TEME","ARG_OF_PERICENTER":"250.7469","PERIAPSIS":"551.804","OBJECT_TYPE":"PAYLOAD","SITE":"AFETR"},{"TLE_LINE2":"2 55597  43.0021  19.2653 0001194 258.8185 236.8063 15.29194648  1302","CLASSIFICATION_TYPE":"U","COUNTRY_CODE":"US","MEAN_MOTION":"15.29194648","TLE_LINE1":"1 55597U 23020AE  23099.91667824 -.00946436  00000-0 -35358-1 0  9993","EPHEMERIS_TYPE":"0","CENTER_NAME":"EARTH","OBJECT_ID":"2023-020AE","APOAPSIS":"479.039","REF_FRAME":"TEME","RCS_SIZE":"LARGE","MEAN_ANOMALY":"236.8063","SITE":"AFETR","OBJECT_TYPE":"PAYLOAD","PERIAPSIS":"477.402","ARG_OF_PERICENTER":"258.8185","BSTAR":"-0.03535800000000","ECCENTRICITY":"0.00011940","INCLINATION":"43.0021","MEAN_MOTION_DDOT":"0.0000000000000","REV_AT_EPOCH":"130","GP_ID":"229812348","NORAD_CAT_ID":"55597","TIME_SYSTEM":"UTC","ELEMENT_SET_NO":"999","MEAN_MOTION_DOT":"-0.00946436","FILE":"3884641","PERIOD":"94.167","MEAN_ELEMENT_THEORY":"SGP4","OBJECT_NAME":"STARLINK-5743","LAUNCH_DATE":"2023-02-12","DECAY_DATE":null,"RA_OF_ASC_NODE":"19.2653","EPOCH":"2023-04-09T22:00:00.999936","SEMIMAJOR_AXIS":"6856.356"},{"INCLINATION":"43.0000","MEAN_MOTION_DDOT":"0.0000000000000","ECCENTRICITY":"0.00013000","NORAD_CAT_ID":"55598","REV_AT_EPOCH":"888","GP_ID":"229784196","BSTAR":"-0.04031900000000","DECAY_DATE":null,"OBJECT_NAME":"STARLINK-5756","LAUNCH_DATE":"2023-02-12","SEMIMAJOR_AXIS":"6871.344","EPOCH":"2023-04-10T00:00:00.999648","RA_OF_ASC_NODE":"18.4712","FILE":"3884546","MEAN_MOTION_DOT":"-0.00927887","ELEMENT_SET_NO":"999","TIME_SYSTEM":"UTC","MEAN_ELEMENT_THEORY":"SGP4","PERIOD":"94.476","EPHEMERIS_TYPE":"0","CENTER_NAME":"EARTH","COUNTRY_CODE":"US","CLASSIFICATION_TYPE":"U","TLE_LINE2":"2 55598  43.0000  18.4712 0001300 264.7373  92.3035 15.24194030  8885","TLE_LINE1":"1 55598U 23020AF  23100.00001157 -.00927887  00000-0 -40319-1 0  9990","MEAN_MOTION":"15.24194030","SITE":"AFETR","ARG_OF_PERICENTER":"264.7373","OBJECT_TYPE":"PAYLOAD","PERIAPSIS":"492.315","REF_FRAME":"TEME","OBJECT_ID":"2023-020AF","APOAPSIS":"494.102","MEAN_ANOMALY":"92.3035","RCS_SIZE":"LARGE"},{"ECCENTRICITY":"0.00012950","MEAN_MOTION_DDOT":"0.0000000000000","INCLINATION":"43.0001","REV_AT_EPOCH":"888","GP_ID":"229784213","NORAD_CAT_ID":"55599","BSTAR":"-0.04014600000000","LAUNCH_DATE":"2023-02-12","OBJECT_NAME":"STARLINK-5761","DECAY_DATE":null,"RA_OF_ASC_NODE":"18.4527","SEMIMAJOR_AXIS":"6870.907","EPOCH":"2023-04-10T00:00:00.999648","ELEMENT_SET_NO":"999","TIME_SYSTEM":"UTC","FILE":"3884543","MEAN_MOTION_DOT":"-0.00927951","PERIOD":"94.467","MEAN_ELEMENT_THEORY":"SGP4","EPHEMERIS_TYPE":"0","CENTER_NAME":"EARTH","TLE_LINE2":"2 55599  43.0001  18.4527 0001295 265.8154  99.1422 15.24339447  8881","CLASSIFICATION_TYPE":"U","COUNTRY_CODE":"US","MEAN_MOTION":"15.24339447","TLE_LINE1":"1 55599U 23020AG  23100.00001157 -.00927951  00000-0 -40146-1 0  9991","SITE":"AFETR","PERIAPSIS":"491.882","OBJECT_TYPE":"PAYLOAD","ARG_OF_PERICENTER":"265.8154","REF_FRAME":"TEME","APOAPSIS":"493.661","OBJECT_ID":"2023-020AG","MEAN_ANOMALY":"99.1422","RCS_SIZE":"LARGE"}];
